[
 {
   "Store": "GRISTEDES - 562",
   "Street": "307 W 26TH ST",
   "City": "NEW YORK",
   "State": "NY",
   "Zip": 10001,
   "Phone": "(212) 243-8328"
 },
 {
   "Store": "UPRIGHT CITIZENS BRIGADE",
   "Street": "307 W 26TH ST",
   "City": "NEW YORK",
   "State": "NY",
   "Zip": 10001,
   "Phone": "(212) 366-9176"
 },
 {
   "Store": "DUANE READE - 14138",
   "Street": "333 7TH AVE",
   "City": "NEW YORK",
   "State": "NY",
   "Zip": 10001,
   "Phone": "(212) 239-0167"
 },
 {
   "Store": "HUDSON FOOD MARKET CORP",
   "Street": "HUDSON FOOD MARKET CORP",
   "City": "NEW YORK",
   "State": "NY",
   "Zip": 10001,
   "Phone": "(212) 967-9077"
 },
 {
   "Store": "CHELSEA DELI",
   "Street": "301 10TH AVE",
   "City": "NEW YORK",
   "State": "NY",
   "Zip": 10001,
   "Phone": "(212) 244-0500"
 },
 {
   "Store": "HIGHLINE DELI II",
   "Street": "83 CANAL ST",
   "City": "NEW YORK",
   "State": "NY",
   "Zip": 10002,
   "Phone": "(212) 226-3811"
 },
 {
   "Store": "169 BAR",
   "Street": "169 E BROADWAY",
   "City": "NEW YORK",
   "State": "NY",
   "Zip": 10002,
   "Phone": "(212) 677-5486"
 },
 {
   "Store": "HOME SWEET HOME",
   "Street": "131 CHRYSTIE ST",
   "City": "NEW YORK",
   "State": "NY",
   "Zip": 10002,
   "Phone": "(212) 226-5708"
 },
 {
   "Store": "GRAND ADVANCE TRADING",
   "Street": "274 GRAND ST",
   "City": "NEW YORK",
   "State": "NY",
   "Zip": 10002,
   "Phone": "(212) 219-8883"
 },
 {
   "Store": "NEW BEER",
   "Street": "167 CHRYSTIE ST",
   "City": "NEW YORK",
   "State": "NY",
   "Zip": 10002,
   "Phone": "(212) 260-4360"
 },
 {
   "Store": "SAN LOCO",
   "Street": "105 STANTON ST",
   "City": "NEW YORK",
   "State": "NY",
   "Zip": 10002,
   "Phone": "(212) 253-7580"
 },
 {
   "Store": "EASTWAY DELI",
   "Street": "169 3RD AVE",
   "City": "NEW YORK",
   "State": "NY",
   "Zip": 10003,
   "Phone": "(212) 260-3859"
 },
 {
   "Store": "JAVELINA",
   "Street": "119 E 18TH ST",
   "City": "NEW YORK",
   "State": "NY",
   "Zip": 10003,
   "Phone": "(212) 539-0202"
 },
 {
   "Store": "OLD TOWN",
   "Street": "45 E 18TH ST",
   "City": "NEW YORK",
   "State": "NY",
   "Zip": 10003,
   "Phone": "(212) 529-6732"
 },
 {
   "Store": "THE PATRIOT SALOON",
   "Street": "110 CHAMBERS ST",
   "City": "NEW YORK",
   "State": "NY",
   "Zip": 10007,
   "Phone": "(212) 748-1162"
 },
 {
   "Store": "KEY FOOD STORE - 566",
   "Street": "52 AVE A",
   "City": "NEW YORK",
   "State": "NY",
   "Zip": 10009,
   "Phone": "(212) 477-9063"
 },
 {
   "Store": "25 B GROUP REST AVE LLC",
   "Street": "25 B",
   "City": "NEW YORK",
   "State": "NY",
   "Zip": 10009,
   "Phone": "(718) 930-9827"
 },
 {
   "Store": "BOXCAR LOUNGE",
   "Street": "168 AVE B",
   "City": "NEW YORK",
   "State": "NY",
   "Zip": 10009,
   "Phone": "(212) 473-2830"
 },
 {
   "Store": "THE HORSEBOX",
   "Street": "218 AVE A",
   "City": "NEW YORK",
   "State": "NY",
   "Zip": 10009,
   "Phone": "(646) 370-1791"
 },
 {
   "Store": "DOUBLE WIDE BAR",
   "Street": "503 E 12TH ST",
   "City": "NEW YORK",
   "State": "NY",
   "Zip": 10009,
   "Phone": "(212) 767-9995"
 },
 {
   "Store": "ASSOCIATED SUPERMARKET",
   "Street": "409 E 14TH ST",
   "City": "NEW YORK",
   "State": "NY",
   "Zip": 10009,
   "Phone": "(212) 254-1509"
 },
 {
   "Store": "GRISTEDES - 518",
   "Street": "355 1ST AVE",
   "City": "NEW YORK",
   "State": "NY",
   "Zip": 10010,
   "Phone": "(212) 725-9500"
 },
 {
   "Store": "HILL COUNTRY",
   "Street": "30 W 26TH ST",
   "City": "NEW YORK",
   "State": "NY",
   "Zip": 10010,
   "Phone": "(212) 255-4544"
 },
 {
   "Store": "HOG PIT N Y C",
   "Street": "37 W 26TH ST # 5",
   "City": "NEW YORK",
   "State": "NY",
   "Zip": 10010,
   "Phone": "(212) 213-4871"
 },
 {
   "Store": "GRISTEDES - 597",
   "Street": "221 8TH AVE",
   "City": "NEW YORK",
   "State": "NY",
   "Zip": 10011,
   "Phone": "(646) 486-7310"
 },
 {
   "Store": "ONE STAR",
   "Street": "147 W 24TH ST",
   "City": "NEW YORK",
   "State": "NY",
   "Zip": 10011,
   "Phone": "(212) 777-0100"
 },
 {
   "Store": "GRISTEDES - 545",
   "Street": "225 9TH AVE",
   "City": "NEW YORK",
   "State": "NY",
   "Zip": 10011,
   "Phone": "(212) 242-9801"
 },
 {
   "Store": "ASSOCIATED SUPERMARKET - 746",
   "Street": "130 BLEECKER ST STE 136",
   "City": "NEW YORK",
   "State": "NY",
   "Zip": 10012,
   "Phone": "(212) 358-9597"
 },
 {
   "Store": "PECULIAR PUB",
   "Street": "145 BLEECKER ST",
   "City": "NEW YORK",
   "State": "NY",
   "Zip": 10012,
   "Phone": "(212) 353-1327"
 },
 {
   "Store": "GRISTEDES - 508",
   "Street": "246 MERCER ST",
   "City": "NEW YORK",
   "State": "NY",
   "Zip": 10012,
   "Phone": "(212) 777-9498"
 },
 {
   "Store": "WEATHERUP TRIBECA",
   "Street": "159 DUANE ST",
   "City": "NEW YORK",
   "State": "NY",
   "Zip": 10013,
   "Phone": "(917) 459-2674"
 },
 {
   "Store": "SOUTHS",
   "Street": "273 CHURCH ST",
   "City": "NEW YORK",
   "State": "NY",
   "Zip": 10013,
   "Phone": "(212) 219-0640"
 },
 {
   "Store": "TRIBECA TAVERN",
   "Street": "15 6TH AVE",
   "City": "NEW YORK",
   "State": "NY",
   "Zip": 10013,
   "Phone": "(212) 941-7671"
 },
 {
   "Store": "ANDYS DELI",
   "Street": "106 7TH AVE S",
   "City": "NEW YORK",
   "State": "NY",
   "Zip": 10014,
   "Phone": "(212) 989-0648"
 },
 {
   "Store": "GRISTEDES - 543",
   "Street": "3 SHERIDAN SQ",
   "City": "NEW YORK",
   "State": "NY",
   "Zip": 10014,
   "Phone": "(212) 229-3893"
 },
 {
   "Store": "THE COWGIRL HALL OF FAME",
   "Street": "519 HUDSON ST",
   "City": "NEW YORK",
   "State": "NY",
   "Zip": 10014,
   "Phone": "(212) 633-1133"
 },
 {
   "Store": "BLUE SMOKE & JAZZ STANDARD",
   "Street": "116 E 27TH ST",
   "City": "NEW YORK",
   "State": "NY",
   "Zip": 10016,
   "Phone": "(212) 447-7733"
 },
 {
   "Store": "GEM SALOON",
   "Street": "375 3RD AVE",
   "City": "NEW YORK",
   "State": "NY",
   "Zip": 10016,
   "Phone": "(917) 318-5222"
 },
 {
   "Store": "RIVE GAUCHO",
   "Street": "560 3RD AVE",
   "City": "NEW YORK",
   "State": "NY",
   "Zip": 10016,
   "Phone": "(212) 949-5400"
 },
 {
   "Store": "GRISTEDES - 533",
   "Street": "748 2ND AVE",
   "City": "NEW YORK",
   "State": "NY",
   "Zip": 10017,
   "Phone": "(212) 599-4615"
 },
 {
   "Store": "ASSOCIATED SUPERMARKET - 788",
   "Street": "908 2ND AVE",
   "City": "NEW YORK",
   "State": "NY",
   "Zip": 10017,
   "Phone": "(212) 308-6922"
 },
 {
   "Store": "BREWTIQUE",
   "Street": "532 9TH AVE",
   "City": "NEW YORK",
   "State": "NY",
   "Zip": 10018,
   "Phone": "(646) 961-6592"
 },
 {
   "Store": "THE WAYLON",
   "Street": "736 10TH AVE",
   "City": "NEW YORK",
   "State": "NY",
   "Zip": 10019,
   "Phone": "(212) 265-0010"
 },
 {
   "Store": "GRISTEDES - 34",
   "Street": "907 8TH AVE",
   "City": "NEW YORK",
   "State": "NY",
   "Zip": 10019,
   "Phone": "(201) 907-2562"
 },
 {
   "Store": "SPECTRUM CATERING AND CONCESIO",
   "Street": "610 W 56TH ST",
   "City": "NEW YORK",
   "State": "NY",
   "Zip": 10019,
   "Phone": "(917) 692-7888"
 },
 {
   "Store": "MORTON WILLIAMS",
   "Street": "140 W 57TH ST FRNT A",
   "City": "NEW YORK",
   "State": "NY",
   "Zip": 10019,
   "Phone": "(212) 586-7750"
 },
 {
   "Store": "MORTON WILLIAMS - 822",
   "Street": "917 9TH AVE",
   "City": "NEW YORK",
   "State": "NY",
   "Zip": 10019,
   "Phone": "(212) 586-8784"
 },
 {
   "Store": "MORTON WILLIAMS",
   "Street": "1331 1ST AVE",
   "City": "NEW YORK",
   "State": "NY",
   "Zip": 10021,
   "Phone": "(212) 249-2851"
 },
 {
   "Store": "NICK & TONIS",
   "Street": "100 WEST 67TH ST",
   "City": "NEW YORK",
   "State": "NY",
   "Zip": 10023,
   "Phone": "(212) 496-4000"
 },
 {
   "Store": "WEST END SUPRETTE",
   "Street": "273 W 72ND ST",
   "City": "NEW YORK",
   "State": "NY",
   "Zip": 10023,
   "Phone": "(212) 787-1874"
 },
 {
   "Store": "GRISTEDES - 511",
   "Street": "504 COLUMBUS AVE",
   "City": "NEW YORK",
   "State": "NY",
   "Zip": 10024,
   "Phone": "(212) 721-3077"
 },
 {
   "Store": "GREENLEAF DELI",
   "Street": "518 AMSTERDAM AVE",
   "City": "NEW YORK",
   "State": "NY",
   "Zip": 10024,
   "Phone": "(212) 877-7507"
 },
 {
   "Store": "SPACE 86 CORP",
   "Street": "524 COLUMBUS AVE",
   "City": "NEW YORK",
   "State": "NY",
   "Zip": 10024,
   "Phone": "(212) 787-7025"
 },
 {
   "Store": "GRISTEDES - 5",
   "Street": "262 W 96TH ST",
   "City": "NEW YORK",
   "State": "NY",
   "Zip": 10025,
   "Phone": "(212) 663-5124"
 },
 {
   "Store": "RALPH AND NASH DELI",
   "Street": "352 W 116TH ST",
   "City": "NEW YORK",
   "State": "NY",
   "Zip": 10026,
   "Phone": "(212) 666-4508"
 },
 {
   "Store": "DINOSAUR BBQ",
   "Street": "2276 12TH AVE",
   "City": "NEW YORK",
   "State": "NY",
   "Zip": 10027,
   "Phone": "(212) 694-1777"
 },
 {
   "Store": "ASSOCIATED SUPERMARKET - 731",
   "Street": "1565 1ST AVE",
   "City": "NEW YORK",
   "State": "NY",
   "Zip": 10028,
   "Phone": "(212) 249-2851"
 },
 {
   "Store": "BIG DADDY",
   "Street": "1596 2ND AVE",
   "City": "NEW YORK",
   "State": "NY",
   "Zip": 10028,
   "Phone": "(212) 717-2020"
 },
 {
   "Store": "CITY SWIGGERS",
   "Street": "320 E 86TH ST",
   "City": "NEW YORK",
   "State": "NY",
   "Zip": 10028,
   "Phone": "(212) 570-2000"
 },
 {
   "Store": "THE DUCK",
   "Street": "2171 2ND AVE",
   "City": "NEW YORK",
   "State": "NY",
   "Zip": 10029,
   "Phone": "(212) 427-1070"
 },
 {
   "Store": "GRISTEDES - 504",
   "Street": "4037 BROADWAY",
   "City": "NEW YORK",
   "State": "NY",
   "Zip": 10032,
   "Phone": "(212) 928-9782"
 },
 {
   "Store": "SMILE DELI",
   "Street": "758 W 181ST ST",
   "City": "NEW YORK",
   "State": "NY",
   "Zip": 10033,
   "Phone": "(212) 923-8924"
 },
 {
   "Store": "VIRGILS",
   "Street": "152 W 44TH ST",
   "City": "NEW YORK",
   "State": "NY",
   "Zip": 10036,
   "Phone": "(212) 921-9494"
 },
 {
   "Store": "BEER CULTURE",
   "Street": "328 W 45TH ST",
   "City": "NEW YORK",
   "State": "NY",
   "Zip": 10036,
   "Phone": "(646) 590-2139"
 },
 {
   "Store": "KEY FOOD STORE - 1982",
   "Street": "452 W 43RD ST",
   "City": "NEW YORK",
   "State": "NY",
   "Zip": 10036,
   "Phone": "(212) 714-1414"
 },
 {
   "Store": "GRISTEDES - 611",
   "Street": "90 MAIDEN LANE",
   "City": "NEW YORK",
   "State": "NY",
   "Zip": 10038,
   "Phone": "(212) 651-8255"
 },
 {
   "Store": "STOUT NYC",
   "Street": "90 JOHN ST",
   "City": "NEW YORK",
   "State": "NY",
   "Zip": 10038,
   "Phone": "(212) 240-9122"
 },
 {
   "Store": "IRON HORSE",
   "Street": "32 CLIFF ST",
   "City": "NEW YORK",
   "State": "NY",
   "Zip": 10038,
   "Phone": "(646) 448-4471"
 },
 {
   "Store": "COWGIRL SEA HORSE",
   "Street": "259 FRONT ST",
   "City": "NEW YORK",
   "State": "NY",
   "Zip": 10038,
   "Phone": "(212) 608-7873"
 },
 {
   "Store": "GRISTEDES - 517",
   "Street": "686 MAIN ST",
   "City": "NEW YORK",
   "State": "NY",
   "Zip": 10044,
   "Phone": "(212) 371-2680"
 },
 {
   "Store": "HONKY TONK TAVERN R",
   "Street": "1154 1ST AVE",
   "City": "NEW YORK",
   "State": "NY",
   "Zip": 10065,
   "Phone": "(212) 207-8550"
 },
 {
   "Store": "GRISTEDES - 413",
   "Street": "1365 3RD AVE",
   "City": "NEW YORK",
   "State": "NY",
   "Zip": 10075,
   "Phone": "(212) 535-8449"
 },
 {
   "Store": "TRI TIP GRILL",
   "Street": "30 ROCKEFELLER PLZ",
   "City": "NEW YORK",
   "State": "NY",
   "Zip": 10112,
   "Phone": "(212) 661-1030"
 },
 {
   "Store": "MORTON WILLIAMS",
   "Street": "1211 MADISON AVE",
   "City": "NEW YORK",
   "State": "NY",
   "Zip": 10128,
   "Phone": "(212) 722-0228"
 },
 {
   "Store": "7 ELEVEN - 35670",
   "Street": "1683 1ST AVE",
   "City": "NEW YORK",
   "State": "NY",
   "Zip": 10128,
   "Phone": "(212) 289-2304"
 },
 {
   "Store": "GRISTEDES - 437",
   "Street": "1343 LEXINGTON AVE",
   "City": "NEW YORK",
   "State": "NY",
   "Zip": 10128,
   "Phone": "(212) 369-5668"
 },
 {
   "Store": "PIONEER SUPERMARKET",
   "Street": "1407 LEXINGTON AVE",
   "City": "NEW YORK",
   "State": "NY",
   "Zip": 10128,
   "Phone": "(212) 828-4499"
 },
 {
   "Store": "DT UT CAFE",
   "Street": "1744 2ND AVE",
   "City": "NEW YORK",
   "State": "NY",
   "Zip": 10128,
   "Phone": "(212) 396-9999"
 },
 {
   "Store": "BIDDYS PUB",
   "Street": "301 E 91ST ST",
   "City": "NEW YORK",
   "State": "NY",
   "Zip": 10128,
   "Phone": "(212) 534-4785"
 },
 {
   "Store": "VINUS AND MARC",
   "Street": "1825 2ND AVE FRNT 1",
   "City": "NEW YORK",
   "State": "NY",
   "Zip": 10128,
   "Phone": "(646) 692-9105"
 },
 {
   "Store": "GRISTEDES - 98",
   "Street": "202 E 96TH ST",
   "City": "NEW YORK",
   "State": "NY",
   "Zip": 10128,
   "Phone": "(212) 348-0890"
 },
 {
   "Store": "GRISTEDES - 40",
   "Street": "315 S END AVE",
   "City": "NEW YORK",
   "State": "NY",
   "Zip": 10280,
   "Phone": "(212) 233-7797"
 },
 {
   "Store": "BLUE SMOKE Y",
   "Street": "102 N END AVE",
   "City": "NEW YORK",
   "State": "NY",
   "Zip": 10282,
   "Phone": "(212) 899-2005"
 },
 {
   "Store": "ADOBE BLUES RESTAURANT",
   "Street": "63 LAFAYETTE AVE",
   "City": "STATEN ISLAND",
   "State": "NY",
   "Zip": 10301,
   "Phone": "(718) 720-2583"
 },
 {
   "Store": "KEY FOOD STORE - 1586",
   "Street": "300 SAND LN",
   "City": "STATEN ISLAND",
   "State": "NY",
   "Zip": 10305,
   "Phone": "(718) 273-4000"
 },
 {
   "Store": "SUPERFRESH",
   "Street": "6400 AMBOY RD",
   "City": "STATEN ISLAND",
   "State": "NY",
   "Zip": 10309,
   "Phone": "(718) 554-4096"
 },
 {
   "Store": "NEW YORK BEVERAGE",
   "Street": "515 BRUCKNER BLVD",
   "City": "BRONX",
   "State": "NY",
   "Zip": 10455,
   "Phone": "(718) 401-7700"
 },
 {
   "Store": "WALGREENS - 10217",
   "Street": "4401 WHITE PLAINS RD",
   "City": "BRONX",
   "State": "NY",
   "Zip": 10470,
   "Phone": "(718) 459-2340"
 },
 {
   "Store": "C TOWN SUPERMARKET",
   "Street": "4465 21ST ST",
   "City": "LONG ISLAND CITY",
   "State": "NY",
   "Zip": 11101,
   "Phone": "(718) 361-7471"
 },
 {
   "Store": "TRADE FAIR - 1",
   "Street": "3008 30TH AVE",
   "City": "ASTORIA",
   "State": "NY",
   "Zip": 11102,
   "Phone": "(718) 728-9484"
 },
 {
   "Store": "DOMINIES",
   "Street": "3407 30TH AV",
   "City": "ASTORIA",
   "State": "NY",
   "Zip": 11103,
   "Phone": "(917) 353-4050"
 },
 {
   "Store": "COURTYARD BAR",
   "Street": "4018 QUEENS BLVD",
   "City": "SUNNYSIDE",
   "State": "NY",
   "Zip": 11104,
   "Phone": "(718) 729-4601"
 },
 {
   "Store": "VERDI FRESH",
   "Street": "2101 31ST ST",
   "City": "ASTORIA",
   "State": "NY",
   "Zip": 11105,
   "Phone": "(718) 274-7829"
 },
 {
   "Store": "BREAK BAR & BILLIARDS",
   "Street": "3204 BROADWAY",
   "City": "ASTORIA",
   "State": "NY",
   "Zip": 11106,
   "Phone": "(718) 777-5400"
 },
 {
   "Store": "SEKEND SUN",
   "Street": "3211 BROADWAY",
   "City": "ASTORIA",
   "State": "NY",
   "Zip": 11106,
   "Phone": "(917) 553-6065"
 },
 {
   "Store": "GRISTEDES - 544",
   "Street": "101 CLARK ST",
   "City": "BROOKLYN",
   "State": "NY",
   "Zip": 11201,
   "Phone": "(718) 834-8268"
 },
 {
   "Store": "SUPER FINE",
   "Street": "126 FRONT ST",
   "City": "BROOKLYN",
   "State": "NY",
   "Zip": 11201,
   "Phone": "(718) 243-9005"
 },
 {
   "Store": "FLOYD NEW YORK",
   "Street": "131 ATLANTIC AVE",
   "City": "BROOKLYN",
   "State": "NY",
   "Zip": 11201,
   "Phone": "(718) 858-5810"
 },
 {
   "Store": "HILL COUNTRY BARBEQUE MARKET",
   "Street": "345 ADAMS ST SPC A",
   "City": "BROOKLYN",
   "State": "NY",
   "Zip": 11201,
   "Phone": "(347) 943-2444"
 },
 {
   "Store": "BROOKLYN FARE - 1920",
   "Street": "200 SCHERMERHORN ST",
   "City": "BROOKLYN",
   "State": "NY",
   "Zip": 11201,
   "Phone": "(718) 243-0050"
 },
 {
   "Store": "322 DEKALB GROCERY",
   "Street": "322 DEKALB AVENUE",
   "City": "BROOKLYN",
   "State": "NY",
   "Zip": 11205,
   "Phone": "(718) 783-3252"
 },
 {
   "Store": "KEYFOOD - 1900",
   "Street": "492 MYRTLE AVE",
   "City": "BROOKLYN",
   "State": "NY",
   "Zip": 11205,
   "Phone": "(646) 902-5965"
 },
 {
   "Store": "CASTILLO DELI & GROCERY",
   "Street": "284 WILLOUGHBY AVE",
   "City": "BROOKLYN",
   "State": "NY",
   "Zip": 11205,
   "Phone": "(718) 398-3023"
 },
 {
   "Store": "C TOWN SUPERMARKET",
   "Street": "241 TAFFE PL",
   "City": "BROOKLYN",
   "State": "NY",
   "Zip": 11205,
   "Phone": "(718) 230-7668"
 },
 {
   "Store": "SALIM SMOKE SHOP & LOTTERY CORP",
   "Street": "488 DEKALB AVE",
   "City": "BROOKLYN",
   "State": "NY",
   "Zip": 11205,
   "Phone": "(917) 893-8823"
 },
 {
   "Store": "574 MARCY DELI",
   "Street": "574 MARCY AVE",
   "City": "BROOKLYN",
   "State": "NY",
   "Zip": 11206,
   "Phone": "(929) 210-8686"
 },
 {
   "Store": "EL MISTE DELI GROCERY",
   "Street": "588 MARCY AVE",
   "City": "BROOKLYN",
   "State": "NY",
   "Zip": 11206,
   "Phone": "(347) 405-5207"
 },
 {
   "Store": "894 DELI AND GROCERY",
   "Street": "894 MYRTLE AVE",
   "City": "BROOKLYN",
   "State": "NY",
   "Zip": 11206,
   "Phone": "(347) 715-7040"
 },
 {
   "Store": "BROOKLYN FINEST DELI I CORP",
   "Street": "131 TOMPKINS AVE",
   "City": "BROOKLYN",
   "State": "NY",
   "Zip": 11206,
   "Phone": "(718) 574-1815"
 },
 {
   "Store": "GRAHAM MARKET",
   "Street": "247 GRAHAM AVE",
   "City": "BROOKLYN",
   "State": "NY",
   "Zip": 11206,
   "Phone": "(917) 765-3875"
 },
 {
   "Store": "AZURE GROCERY",
   "Street": "187 MONTROSE AVE",
   "City": "BROOKLYN",
   "State": "NY",
   "Zip": 11206,
   "Phone": "(718) 599-7887"
 },
 {
   "Store": "MESSEROLES UNITED DELI GROCERY",
   "Street": "232 MESEROLE ST",
   "City": "BROOKLYN",
   "State": "NY",
   "Zip": 11206,
   "Phone": "(718) 366-8957"
 },
 {
   "Store": "SABBAA GROCERY",
   "Street": "235 BUSHWICK AVE",
   "City": "BROOKLYN",
   "State": "NY",
   "Zip": 11206,
   "Phone": "(718) 456-8191"
 },
 {
   "Store": "FOOD STORY NATURAL MARKET",
   "Street": "40 BOGART ST",
   "City": "BROOKLYN",
   "State": "NY",
   "Zip": 11206,
   "Phone": "(718) 381-6800"
 },
 {
   "Store": "KODA RESTAURANT & LOUNGE",
   "Street": "985 FLUSHING AVE",
   "City": "BROOKLYN",
   "State": "NY",
   "Zip": 11206,
   "Phone": "(347) 223-4026"
 },
 {
   "Store": "THE BROOKLYN MARKET",
   "Street": "8102 3RD AVE",
   "City": "BROOKLYN",
   "State": "NY",
   "Zip": 11209,
   "Phone": "(718) 567-8600"
 },
 {
   "Store": "MET FRESH",
   "Street": "9606 3RD AVE",
   "City": "BROOKLYN",
   "State": "NY",
   "Zip": 11209,
   "Phone": "(718) 836-2700"
 },
 {
   "Store": "LUCKY DOG",
   "Street": "303 BEDFORD AVE",
   "City": "BROOKLYN",
   "State": "NY",
   "Zip": 11211,
   "Phone": "(212) 555-1212"
 },
 {
   "Store": "MRPINA",
   "Street": "219 HAVEMEYER ST",
   "City": "BROOKLYN",
   "State": "NY",
   "Zip": 11211,
   "Phone": "(347) 689-9001"
 },
 {
   "Store": "ADEN GOURMET DELI",
   "Street": "244 ROEBLING ST",
   "City": "BROOKLYN",
   "State": "NY",
   "Zip": 11211,
   "Phone": "(718) 387-8066"
 },
 {
   "Store": "F & B ORGANIC DELI GROCERY",
   "Street": "728 DRIGGS AVE",
   "City": "BROOKLYN",
   "State": "NY",
   "Zip": 11211,
   "Phone": "(718) 486-3953"
 },
 {
   "Store": "FOOD TOWN - 545",
   "Street": "159 N 3RD ST",
   "City": "BROOKLYN",
   "State": "NY",
   "Zip": 11211,
   "Phone": "(718) 302-5533"
 },
 {
   "Store": "SAN LOCO RESTAURANT",
   "Street": "160 N 4TH ST STE 160C",
   "City": "BROOKLYN",
   "State": "NY",
   "Zip": 11211,
   "Phone": "(718) 218-8479"
 },
 {
   "Store": "MARACUJA",
   "Street": "279 GRAND ST",
   "City": "BROOKLYN",
   "State": "NY",
   "Zip": 11211,
   "Phone": "(718) 218-7398"
 },
 {
   "Store": "THE ABBEY",
   "Street": "536 DRIGGS AVE",
   "City": "BROOKLYN",
   "State": "NY",
   "Zip": 11211,
   "Phone": "(718) 599-4400"
 },
 {
   "Store": "ROCKA ROLLA",
   "Street": "486 METROPOLITAN AVE",
   "City": "BROOKLYN",
   "State": "NY",
   "Zip": 11211,
   "Phone": "(845) 558-4318"
 },
 {
   "Store": "MACMURRAY",
   "Street": "488 DRIGGS AVE",
   "City": "BROOKLYN",
   "State": "NY",
   "Zip": 11211,
   "Phone": "(347) 384-2722"
 },
 {
   "Store": "MACRI PARK",
   "Street": "462 UNION AVE STE A",
   "City": "BROOKLYN",
   "State": "NY",
   "Zip": 11211,
   "Phone": "(718) 599-4999"
 },
 {
   "Store": "HUCKLEBERRY BAR",
   "Street": "588 GRAND ST",
   "City": "BROOKLYN",
   "State": "NY",
   "Zip": 11211,
   "Phone": "(718) 218-8555"
 },
 {
   "Store": "THE BROOKLYN STAR",
   "Street": "593 LORIMER ST",
   "City": "BROOKLYN",
   "State": "NY",
   "Zip": 11211,
   "Phone": "(540) 738-0892"
 },
 {
   "Store": "NORTHERN BELL",
   "Street": "612 METROPOLITAN AVE",
   "City": "BROOKLYN",
   "State": "NY",
   "Zip": 11211,
   "Phone": "(718) 388-9040"
 },
 {
   "Store": "BASIK G",
   "Street": "323 GRAHAM AVE",
   "City": "BROOKLYN",
   "State": "NY",
   "Zip": 11211,
   "Phone": "(917) 553-6065"
 },
 {
   "Store": "LPN HARMONY",
   "Street": "683 GRAND ST",
   "City": "BROOKLYN",
   "State": "NY",
   "Zip": 11211,
   "Phone": "(646) 765-8269"
 },
 {
   "Store": "4TH DOWN",
   "Street": "750 GRAND ST",
   "City": "BROOKLYN",
   "State": "NY",
   "Zip": 11211,
   "Phone": "(646) 235-5357"
 },
 {
   "Store": "LATE NIGHT DELI B",
   "Street": "905 METROPOLITAN AVE",
   "City": "BROOKLYN",
   "State": "NY",
   "Zip": 11211,
   "Phone": "(718) 388-3366"
 },
 {
   "Store": "BENZS FOOD",
   "Street": "332 ALBANY AVE",
   "City": "BROOKLYN",
   "State": "NY",
   "Zip": 11213,
   "Phone": "(718) 778-3329"
 },
 {
   "Store": "215 FINE FOOD DELI",
   "Street": "215 4TH AVE",
   "City": "BROOKLYN",
   "State": "NY",
   "Zip": 11215,
   "Phone": "(718) 636-1835"
 },
 {
   "Store": "CAROUSEL BEVERAGE",
   "Street": "436 3RD AVE",
   "City": "BROOKLYN",
   "State": "NY",
   "Zip": 11215,
   "Phone": "(718) 499-7462"
 },
 {
   "Store": "BONNIES GRILL",
   "Street": "278 5TH AVE",
   "City": "BROOKLYN",
   "State": "NY",
   "Zip": 11215,
   "Phone": "(718) 369-9527"
 },
 {
   "Store": "4TH AVENUE BEER HOUSE",
   "Street": "246 11TH ST",
   "City": "BROOKLYN",
   "State": "NY",
   "Zip": 11215,
   "Phone": "(347) 641-2844"
 },
 {
   "Store": "KEY FOOD STORE - 890",
   "Street": "130 7TH AVE",
   "City": "BROOKLYN",
   "State": "NY",
   "Zip": 11215,
   "Phone": "(718) 768-8317"
 },
 {
   "Store": "EARTHS BASKETING",
   "Street": "599 4TH AVE",
   "City": "BROOKLYN",
   "State": "NY",
   "Zip": 11215,
   "Phone": "(718) 499-9817"
 },
 {
   "Store": "ASSOCIATED FRESH MARKET",
   "Street": "615 5TH AVE",
   "City": "BROOKLYN",
   "State": "NY",
   "Zip": 11215,
   "Phone": "(718) 499-4249"
 },
 {
   "Store": "SOUTH",
   "Street": "629 5TH AVE",
   "City": "BROOKLYN",
   "State": "NY",
   "Zip": 11215,
   "Phone": "(718) 832-4720"
 },
 {
   "Store": "DOLEHS SUPERMARKET",
   "Street": "1689 8TH AVE",
   "City": "BROOKLYN",
   "State": "NY",
   "Zip": 11215,
   "Phone": "(718) 499-6913"
 },
 {
   "Store": "DELUXE SNACKS INC",
   "Street": "373 20TH ST PIER C",
   "City": "BROOKLYN",
   "State": "NY",
   "Zip": 11215,
   "Phone": "(646) 328-1498"
 },
 {
   "Store": "P & E GROCERY",
   "Street": "228 PROSPECT PARK W",
   "City": "BROOKLYN",
   "State": "NY",
   "Zip": 11215,
   "Phone": "(718) 369-7701"
 },
 {
   "Store": "DO OR DIVE",
   "Street": "1108 BEDFORD AVE",
   "City": "BROOKLYN",
   "State": "NY",
   "Zip": 11216,
   "Phone": "(646) 388-0441"
 },
 {
   "Store": "ZUDY 59",
   "Street": "59 61 LAFAYETTE AVE",
   "City": "BROOKLYN",
   "State": "NY",
   "Zip": 11217,
   "Phone": "(646) 247-9113"
 },
 {
   "Store": "GALA APPLE INTERNATIONAL",
   "Street": "4112 18TH AVE",
   "City": "BROOKLYN",
   "State": "NY",
   "Zip": 11218,
   "Phone": "(718) 686-7590"
 },
 {
   "Store": "BRAVO",
   "Street": "844 DEKALB AVE",
   "City": "BROOKLYN",
   "State": "NY",
   "Zip": 11221,
   "Phone": "(718) 443-3700"
 },
 {
   "Store": "KAY DELI",
   "Street": "957 BROADWAY",
   "City": "BROOKLYN",
   "State": "NY",
   "Zip": 11221,
   "Phone": "(718) 453-2640"
 },
 {
   "Store": "TRADE WISE",
   "Street": "1165 BROADWAY",
   "City": "BROOKLYN",
   "State": "NY",
   "Zip": 11221,
   "Phone": "(917) 753-6416"
 },
 {
   "Store": "ALONSO GROCERY",
   "Street": "1195 BUCHWICK AVE",
   "City": "BROOKLYN",
   "State": "NY",
   "Zip": 11221,
   "Phone": "(718) 443-9673"
 },
 {
   "Store": "ASSOCIATED SUPERMARKET - 5920",
   "Street": "802 MANHATTAN AVE",
   "City": "BROOKLYN",
   "State": "NY",
   "Zip": 11222,
   "Phone": "(718) 383-7973"
 },
 {
   "Store": "FREDDYS MARKET",
   "Street": "257 DRIGGS AVE",
   "City": "BROOKLYN",
   "State": "NY",
   "Zip": 11222,
   "Phone": "(718) 302-5208"
 },
 {
   "Store": "C TOWN SUPERMARKET",
   "Street": "953 MANHATTAN AVE",
   "City": "BROOKLYN",
   "State": "NY",
   "Zip": 11222,
   "Phone": "(718) 349-3000"
 },
 {
   "Store": "J & J GOURMET & CANDY",
   "Street": "969 MANHATTAN AVE",
   "City": "BROOKLYN",
   "State": "NY",
   "Zip": 11222,
   "Phone": "(718) 388-7202"
 },
 {
   "Store": "RIA BELLA PIZZA",
   "Street": "1049 MANHATTAN AVE",
   "City": "BROOKLYN",
   "State": "NY",
   "Zip": 11222,
   "Phone": "(718) 389-4400"
 },
 {
   "Store": "BIG BLUE",
   "Street": "223 GREENPOINT AVE",
   "City": "BROOKLYN",
   "State": "NY",
   "Zip": 11222,
   "Phone": "(718) 387-4416"
 },
 {
   "Store": "FLATBUSH BEER",
   "Street": "2115 COYLE ST",
   "City": "BROOKLYN",
   "State": "NY",
   "Zip": 11229,
   "Phone": "(718) 332-5520"
 },
 {
   "Store": "NRT FOOD",
   "Street": "118 KANE ST",
   "City": "BROOKLYN",
   "State": "NY",
   "Zip": 11231,
   "Phone": "(718) 237-4070"
 },
 {
   "Store": "APPLE TREE",
   "Street": "312 COURT ST STE 1",
   "City": "BROOKLYN",
   "State": "NY",
   "Zip": 11231,
   "Phone": "(718) 624-7581"
 },
 {
   "Store": "BROOKLYN ICE HOUSE",
   "Street": "318 VAN BRUNT ST",
   "City": "BROOKLYN",
   "State": "NY",
   "Zip": 11231,
   "Phone": "(917) 279-7089"
 },
 {
   "Store": "A & L FOOD GROCERY",
   "Street": "803 HALSEY ST",
   "City": "BROOKLYN",
   "State": "NY",
   "Zip": 11233,
   "Phone": "(718) 443-0521"
 },
 {
   "Store": "BEER KING",
   "Street": "2102 UTICA AVE",
   "City": "BROOKLYN",
   "State": "NY",
   "Zip": 11234,
   "Phone": "(718) 434-3086"
 },
 {
   "Store": "HI MANGO NATURAL MARKET",
   "Street": "1055 FLUSHING AVE",
   "City": "BROOKLYN",
   "State": "NY",
   "Zip": 11237,
   "Phone": "(203) 787-1055"
 },
 {
   "Store": "KING GOURMET DELI CORP",
   "Street": "193 KNICKERBOCKER AVE",
   "City": "BROOKLYN",
   "State": "NY",
   "Zip": 11237,
   "Phone": "(718) 821-1122"
 },
 {
   "Store": "HI MANGO NATURAL MKT",
   "Street": "341 KNICKERBOCKER AVE",
   "City": "BROOKLYN",
   "State": "NY",
   "Zip": 11237,
   "Phone": "(718) 366-9111"
 },
 {
   "Store": "ZOON",
   "Street": "410 KNICKERBOCKER AVE",
   "City": "BROOKLYN",
   "State": "NY",
   "Zip": 11237,
   "Phone": "(718) 453-4632"
 },
 {
   "Store": "BOOTLEG BAR",
   "Street": "1438 MYRTLE AVE",
   "City": "BROOKLYN",
   "State": "NY",
   "Zip": 11237,
   "Phone": "(347) 715-6307"
 },
 {
   "Store": "SALLY ROOTS",
   "Street": "195 WYCKOFF AVE",
   "City": "BROOKLYN",
   "State": "NY",
   "Zip": 11237,
   "Phone": "(347) 425-0888"
 },
 {
   "Store": "DREAMER TOBACCO SHOP & GROCERY",
   "Street": "300 WYCKOFF AVE",
   "City": "BROOKLYN",
   "State": "NY",
   "Zip": 11237,
   "Phone": "(470) 819-8723"
 },
 {
   "Store": "HEAVY WOODS",
   "Street": "50 WYCKOFF AVE",
   "City": "BROOKLYN",
   "State": "NY",
   "Zip": 11237,
   "Phone": "(646) 924-8488"
 },
 {
   "Store": "PIZZA PARTY",
   "Street": "254 IRVING AVE",
   "City": "BROOKLYN",
   "State": "NY",
   "Zip": 11237,
   "Phone": "(347) 240-9105"
 },
 {
   "Store": "EL CALVARIO DELI GROCERY",
   "Street": "283 IRVING AVE",
   "City": "BROOKLYN",
   "State": "NY",
   "Zip": 11237,
   "Phone": "(347) 384-1760"
 },
 {
   "Store": "KEY FOOD STORE - 1262",
   "Street": "369 FLATBUSH AVE",
   "City": "BROOKLYN",
   "State": "NY",
   "Zip": 11238,
   "Phone": "(718) 789-3007"
 },
 {
   "Store": "STOP II ORGANIC 7 GROCERY CORP",
   "Street": "585 VANDERBILT AVE",
   "City": "BROOKLYN",
   "State": "NY",
   "Zip": 11238,
   "Phone": "(718) 230-4200"
 },
 {
   "Store": "MET FOODS",
   "Street": "991 FULTON ST",
   "City": "BROOKLYN",
   "State": "NY",
   "Zip": 11238,
   "Phone": "(718) 636-1620"
 },
 {
   "Store": "CHILOS",
   "Street": "323 FRANKLIN AVE",
   "City": "BROOKLYN",
   "State": "NY",
   "Zip": 11238,
   "Phone": "(718) 676-5245"
 },
 {
   "Store": "FOOD CENTER GROCERY",
   "Street": "358 FRANKLIN AVE",
   "City": "BROOKLYN",
   "State": "NY",
   "Zip": 11238,
   "Phone": "(718) 636-4495"
 },
 {
   "Store": "DORIS",
   "Street": "1088 FULTON ST",
   "City": "BROOKLYN",
   "State": "NY",
   "Zip": 11238,
   "Phone": "(347) 240-3350"
 },
 {
   "Store": "NSA SUPERMARKETS",
   "Street": "720 WASHINGTON AVE",
   "City": "BROOKLYN",
   "State": "NY",
   "Zip": 11238,
   "Phone": "(718) 638-7500"
 },
 {
   "Store": "EAST RIVER",
   "Street": "97 S 6TH ST",
   "City": "BROOKLYN",
   "State": "NY",
   "Zip": 11249,
   "Phone": "(718) 302-0511"
 },
 {
   "Store": "LEVEE",
   "Street": "212 BERRY ST",
   "City": "BROOKLYN",
   "State": "NY",
   "Zip": 11249,
   "Phone": "(718) 218-8787"
 },
 {
   "Store": "GEORGE AND JACKS",
   "Street": "103 BERRY ST",
   "City": "BROOKLYN",
   "State": "NY",
   "Zip": 11249,
   "Phone": "(845) 661-5069"
 },
 {
   "Store": "MABLES SMOKEHOUSE AND BANQUET HALL",
   "Street": "44 BERRY ST",
   "City": "BROOKLYN",
   "State": "NY",
   "Zip": 11249,
   "Phone": "(718) 218-6655"
 },
 {
   "Store": "SKINNY DENNIS",
   "Street": "152 METROPOLITAN AVE",
   "City": "BROOKLYN",
   "State": "NY",
   "Zip": 11249,
   "Phone": "(347) 529-6647"
 },
 {
   "Store": "BEVERAGE DEPOT",
   "Street": "16601 NORTHERN BLVD",
   "City": "FLUSHING",
   "State": "NY",
   "Zip": 11358,
   "Phone": "(718) 539-4500"
 },
 {
   "Store": "B & B BEVERAGE",
   "Street": "21202 41ST AVE",
   "City": "BAYSIDE",
   "State": "NY",
   "Zip": 11361,
   "Phone": "(718) 281-1222"
 },
 {
   "Store": "KISSENA BEVERAGE",
   "Street": "15617 73TH AVE",
   "City": "FLUSHING",
   "State": "NY",
   "Zip": 11367,
   "Phone": "(718) 969-0013"
 },
 {
   "Store": "ASSOCIATED SUPERMARKET",
   "Street": "6680 FRESH POND RD",
   "City": "RIDGEWOOD",
   "State": "NY",
   "Zip": 11385,
   "Phone": "(718) 418-4885"
 },
 {
   "Store": "BUFFALO WILD WINGS GRILL & BAR",
   "Street": "JFK INTL TERM 4",
   "City": "JAMAICA",
   "State": "NY",
   "Zip": 11432,
   "Phone": "(718) 751-4800"
 }
]